LEMUR-2-STARLIGHT       
1 66783U 25276DY  26095.19296820  .00010920  00000+0  91991-3 0  9994
2 66783  97.5280 168.3506 0014340  21.7642 338.4187 14.98290686 19261
LEMUR-2-TARTIFLETTE     
1 66784U 25276DZ  26095.45475054  .00008131  00000+0  68872-3 0  9995
2 66784  97.5285 168.6169 0013543  27.7118 332.4824 14.98172019 19309
LEMUR-2-VUKASIN         
1 66785U 25276EA  26095.44535407  .00008984  00000+0  73585-3 0  9997
2 66785  97.5280 168.7635 0008717  24.2457 335.9175 14.99480402 19248
LEMUR-2-HOTSPUR-TOM     
1 66786U 25276EB  26095.44442856  .00007738  00000+0  65552-3 0  9994
2 66786  97.5276 168.6089 0014518  23.3042 336.8837 14.98170654 19230
LEMUR-2-MYRA            
1 66787U 25276EC  26095.47275561  .00010690  00000+0  87487-3 0  9997
2 66787  97.5276 168.7397 0012244  34.3865 325.8149 14.99436584 19314
LEMUR-2 FIKRETDENGIZ    
1 67363U 26004A   26095.57842841  .00006185  00000+0  68298-3 0  9993
2 67363  97.8026  95.2857 0009619  29.5564 330.6194 14.87760367 12481
LEMUR-2-CALLUM-K-J      
1 67364U 26004B   26095.51266823  .00004197  00000+0  46905-3 0  9990
2 67364  97.8060  95.2512 0009070  18.9685 341.1867 14.87455771 12489
LEMUR-2-MARIO-SOUSA     
1 67365U 26004C   26095.57017295  .00006521  00000+0  71692-3 0  9998
2 67365  97.8002  95.2766 0009187  31.3523 328.8239 14.87921196 12491
LEMUR-2-SONNENBLUME     
1 67367U 26004E   26095.56431902  .00005488  00000+0  60403-3 0  9993
2 67367  97.7991  95.2731 0008885  32.6815 327.4949 14.87945527 12490
LEMUR-2-WOBLER          
1 67368U 26004F   26095.56365218  .00006183  00000+0  67916-3 0  9999
2 67368  97.8052  95.3290 0008679  23.9021 336.2597 14.87982450 12497
LEMUR-2-GRAM-E-SUE      
1 67370U 26004H   26095.48934660  .00004945  00000+0  54313-3 0  9997
2 67370  97.7988  95.2070 0008128  36.7679 323.4094 14.88083407 12486
LEMUR-2-KATIE           
1 67387U 26004AA  26095.54997157  .00007815  00000+0  82512-3 0  9993
2 67387  97.8052  95.4977 0002743  11.2937 348.8341 14.89528281 12499
LEMUR-2-HCS-BAZUS       
1 67388U 26004AB  26095.54611249  .00003089  00000+0  33042-3 0  9992
2 67388  97.8036  95.4921 0002120  11.0701 349.0563 14.89460466 12496
